LEMUR-2-CELIJO-SB-PK    
1 66781U 25276DW  26153.42629145  .00007736  00000+0  62951-3 0  9998
2 66781  97.5292 224.6866 0008591 169.2335 190.9074 14.99780582 20410
LEMUR-2-FINNIAN         
1 66782U 25276DX  26154.74118619  .00007687  00000+0  61879-3 0  9997
2 66782  97.5250 226.1641 0008226 130.0272 230.1676 15.00198931 17981
LEMUR-2-STARLIGHT       
1 66783U 25276DY  26154.15160255  .00007075  00000+0  58890-3 0  9996
2 66783  97.5271 225.2684 0015061 169.1551 191.0000 14.98878981 28096
LEMUR-2-TARTIFLETTE     
1 66784U 25276DZ  26154.15030997  .00008568  00000+0  71205-3 0  9999
2 66784  97.5269 225.2721 0013716 175.6006 184.5341 14.98889613 28097
LEMUR-2-VUKASIN         
1 66785U 25276EA  26154.15609479  .00007430  00000+0  59854-3 0  9990
2 66785  97.5301 225.5417 0006107 158.1288 202.0198 15.00195286 28045
LEMUR-2-HOTSPUR-TOM     
1 66786U 25276EB  26155.00967123  .00007736  00000+0  64493-3 0  9993
2 66786  97.5238 226.0893 0014977 169.0978 191.0572 14.98784076 28152
LEMUR-2-MYRA            
1 66787U 25276EC  26154.71989991  .00006997  00000+0  56495-3 0  9999
2 66787  97.5223 226.0441 0014867 186.4673 173.6362 15.00057164 28191
LEMUR-2 FIKRETDENGIZ    
1 67363U 26004A   26154.55319882  .00004718  00000+0  51674-3 0  9991
2 67363  97.8015 153.3224 0008838 173.3369 186.7966 14.88221873 21253
TWILIGHT-1 OBJECT B     
1 67364U 26004B   26154.97575867  .00001747  00000+0  19779-3 0  9994
2 67364  97.8058 153.7586 0008983 163.3184 196.8330 14.87654413 21325
LEMUR-2-MARIO-SOUSA     
1 67365U 26004C   26155.21077289  .00005625  00000+0  61210-3 0  9994
2 67365  97.7991 153.9664 0008477 171.6156 188.5204 14.88405946 21367
LEMUR-2-SONNENBLUME     
1 67367U 26004E   26155.00589838  .00003453  00000+0  37968-3 0  9991
2 67367  97.7983 153.7541 0007988 174.6572 185.4731 14.88244849 21334
LEMUR-2-WOBLER          
1 67368U 26004F   26155.00106294  .00004646  00000+0  50648-3 0  9998
2 67368  97.8037 153.8581 0008530 163.6845 196.4648 14.88419567 21336
LEMUR-2-GRAM-E-SUE      
1 67370U 26004H   26154.99144457  .00002753  00000+0  30273-3 0  9990
2 67370  97.7971 153.7538 0007025 174.8290 185.3001 14.88409002 21335
LEMUR-2-KATIE           
1 67387U 26004AA  26154.99255338  .00004501  00000+0  47301-3 0  9992
2 67387  97.8032 154.1718 0004440 120.4962 239.6694 14.89945610 21341
LEMUR-2-HCS-BAZUS       
1 67388U 26004AB  26154.99164554  .00005192  00000+0  54476-3 0  9990
2 67388  97.8020 154.1536 0004108 115.6889 244.4753 14.89938139 21340
